P/2011 W1 (PANSTARRS),e,3.7157,161.7905,283.1135,4.675879,0.0974786,0.28826205,142.7444,02/13.0/2026,2000,g 11.5,4.0
# From MPC 79342
P/2011 Y2 (Boattini),e,6.3930,309.3197,132.0962,6.225308,0.0634546,0.71114547,322.1632,02/13.0/2026,2000,g 15.0,4.0
# From MPC 93583
C/2012 A1 (PANSTARRS),e,121.0090,277.8731,191.9534,27041,0.0000002,0.99971846,0.0000,11/29.8880/2013,2000,g  6.0,4.0
# From unp
P/2012 A3 (SOHO),e,11.0148,174.5557,219.8298,2.584267,0.2372454,0.77003426,139.8212,02/13.0/2026,2000,g 17.0,4.0
# From MPEC 2022-K19
P/2012 B1 (PANSTARRS),e,7.6051,36.2085,161.8551,6.544975,0.0588630,0.41049455,272.6936,02/13.0/2026,2000,g  9.0,4.0
# From MPC 84931
P/2012 F2 (PANSTARRS),e,14.6949,226.8898,33.2085,6.350421,0.0615886,0.54137780,290.4788,02/13.0/2026,2000,g 12.0,4.0
# From MPEC 2022-ED3
P/2012 G1 (PANSTARRS),e,12.1685,283.2296,266.0153,4.161570,0.1160963,0.32992015,227.8572,02/13.0/2026,2000,g 15.0,4.0
# From MPC103843
C/2012 K1 (PANSTARRS),e,142.5968,317.7622,203.1967,8278,0.0000013,0.99987206,0.0000,08/23.4986/2014,2000,g  5.6,3.2
# From MPC 80898
P/2012 K3 (Gibbs),e,13.1815,125.8016,172.1111,3.633774,0.1422876,0.42176450,338.2536,02/13.0/2026,2000,g 15.0,4.0
# From MPC100577
C/2012 K8 (Lemmon),h,08/20.3622/2014,105.9748,312.7277,75.8477,1.000750,6.461069,2000,6.0,4.0
# From MPC112389
C/2012 LP26 (Palomar),h,08/12.5752/2015,25.3597,154.0921,145.3161,1.001412,6.570861,2000,6.5,4.0
# From MPC 81470
P/2012 O1 (McNaught),e,7.4280,91.9397,238.2773,3.542481,0.1478233,0.59346666,15.3570,02/13.0/2026,2000,g 17.5,4.0
# From MPC 80899
P/2012 O2 (McNaught),e,24.4557,120.6586,183.3940,3.630989,0.1424514,0.53129128,353.2353,02/13.0/2026,2000,g 17.0,4.0
# From MPC115880
C/2012 Q1 (Kowalski),e,45.1654,184.4833,139.4849,26.22235,0.0073400,0.63625690,37.5950,02/13.0/2026,2000,g  4.0,4.0
# From MPEC 2025-W75
C/2012 S1 (ISON),h,11/27.7653/2013,58.4240,297.0354,345.1119,1.000003,0.014233,2000,8.5,3.2
# From MPC 80900
P/2012 T3 (PANSTARRS),e,9.5535,114.3200,195.4298,6.162223,0.0644315,0.61561377,325.0219,02/13.0/2026,2000,g 15.0,4.0
# From MPC108592
C/2012 X1 (LINEAR),e,44.2875,113.3548,132.1449,159.2581,0.0004904,0.98986548,0.0000,02/15.4207/2014,2000,g  4.8,3.6
# From MPC103843
C/2013 A1 (Siding Spring),h,10/26.3810/2014,128.7561,301.2016,2.5591,1.000078,1.400465,2000,8.2,2.4
# From MPEC 2025-YF1
C/2013 C2 (Tenagra),e,21.3720,247.5786,308.7365,15.87329,0.0155849,0.42597875,59.5351,02/13.0/2026,2000,g  4.0,4.0
# From MPEC 2013-Y32
P/2013 CU129 (PANSTARRS),e,11.8253,45.6487,212.9845,2.903943,0.1991691,0.71581416,200.9669,02/13.0/2026,2000,g 18.0,2.0
# From MPC 90270
C/2013 E1 (McNaught),e,158.7112,133.8201,311.3618,6571,0.0000019,0.99881842,0.0000,06/09.9206/2013,2000,g  5.5,4.0
# From MPC 91612
P/2013 G1 (Kowalski),e,5.4568,221.3031,51.3034,6.909823,0.0542630,0.51019150,242.5870,02/13.0/2026,2000,g 11.0,4.0
# From MPC 84025
P/2013 G4 (PANSTARRS),e,5.9197,339.5865,214.5121,4.431820,0.1056406,0.40973165,140.9626,02/13.0/2026,2000,g 15.0,4.0
# From MPC 91613
P/2013 J2 (McNaught),e,15.4994,289.2823,37.8239,6.232555,0.0633439,0.65565228,288.7494,02/13.0/2026,2000,g 13.0,4.0
# From MPC111767
C/2013 P3 (Palomar),h,11/25.2213/2014,93.8468,177.3645,177.3512,1.002212,8.688426,2000,5.5,4.0
# From MPC 96865
C/2013 P4 (PANSTARRS),e,4.2600,256.4965,113.8926,14.78404,0.0173386,0.59397366,72.9111,02/13.0/2026,2000,g  7.5,4.0
# From MPEC 2022-V95
P/2013 R3 (Catalina-PANSTARRS),e,0.8667,341.7357,11.3528,3.029942,0.1868756,0.27829323,129.6806,02/13.0/2026,2000,g 14.0,4.0
# From MPC 86643
P/2013 T2 (Schwartz),e,9.4463,0.7970,345.5602,3.493753,0.1509266,0.50011680,342.1316,02/13.0/2026,2000,g 16.0,4.0
# From MPC xxxxx
C/2013 US10 (Catalina),h,11/12.5087/2015,148.8981,186.2006,340.2155,1.000162,0.812720,2000,8.7,4.0
# From MPC111767
C/2013 V4 (Catalina),h,10/10.4594/2015,67.9768,55.5580,40.4469,1.000455,5.183419,2000,6.0,4.0
# From MPC 91613
P/2013 W1 (PANSTARRS),e,4.7002,117.8370,1.2696,3.483874,0.1515690,0.59392817,299.9902,02/13.0/2026,2000,g 17.5,4.0
# From MPC109141
C/2013 W2 (PANSTARRS),e,4.8523,178.2602,303.8986,9.613549,0.0330658,0.54785713,135.3455,02/13.0/2026,2000,g 13.5,2.0
# From MPC111767
C/2013 X1 (PANSTARRS),h,04/23.6341/2016,163.0742,132.0538,165.4784,1.000933,1.312592,2000,10.5,2.0
# From MPC101095
P/2013 YG46 (Spacewatch),e,7.1388,40.7213,251.0240,3.243994,0.1686880,0.47977924,186.1371,02/13.0/2026,2000,g 10.0,4.0
# From MPC108592
C/2014 A4 (SONEAR),h,09/05.6545/2015,121.3501,29.6987,356.8797,1.000087,4.205805,2000,6.0,4.0
# From MPEC 2022-HC2
C/2014 B1 (Schwartz),h,09/09.4661/2017,28.3843,161.2971,345.7405,1.000386,9.535330,2000,4.0,4.0
# From MPEC 2024-F34
P/2014 C1 (TOTAS),e,3.1958,39.6177,188.0008,4.038138,0.1214597,0.33960019,254.1371,02/13.0/2026,2000,g 15.5,4.0
# From MPC181177
C/2014 F3 (Sheppard-Trujillo),e,6.5208,325.9866,5.1012,14.36742,0.0180982,0.60100588,31.1926,02/13.0/2026,2000,g  6.0,4.0
# From MPC 98560
P/2014 L2 (NEOWISE),e,5.1885,149.3265,182.6633,6.315041,0.0621069,0.64587995,262.8949,02/13.0/2026,2000,g 12.0,4.0
# From MPEC 2022-M88
C/2014 M2 (Christensen),e,32.3368,245.4004,40.4184,1277,0.0000216,0.99456706,0.0000,07/07.6609/2014,2000,g  6.0,4.0
# From MPC 98560
P/2014 O3 (PANSTARRS),e,7.7889,87.6239,204.5595,7.588937,0.0471447,0.38238545,204.5769,02/13.0/2026,2000,g 10.5,4.0
# From MPEC 2021-J28
C/2014 OE4 (PANSTARRS),h,12/06.4587/2016,81.2598,240.4523,65.8729,1.000077,6.264499,2000,11.0,2.0
# From MPEC 2025-YF1
C/2014 OG392 (PANSTARRS),e,9.0320,145.8304,255.5204,12.25341,0.0229783,0.18474352,34.3608,02/13.0/2026,2000,g  6.0,4.0
# From MPC xxxxx
C/2014 Q2 (Lovejoy),e,80.7933,94.8674,12.3241,402.6834,0.0001220,0.99680171,0.0000,01/30.4686/2015,2000,g  8.2,4.0
# From MPEC 2021-F20
C/2014 R3 (PANSTARRS),e,90.7746,333.9835,113.3432,53567,0.0000001,0.99986441,0.0000,08/08.7570/2016,2000,g  6.5,4.0
# From MPEC 2026-A90
C/2014 UN271 (Bernardinelli-Bernstein),h,01/16.2059/2031,95.4462,189.9864,326.0771,1.004321,10.960474,2000,2.5,3.2
# From MPC 95211
P/2014 V1 (PANSTARRS),e,22.4955,166.1664,177.6257,5.483111,0.0767651,0.53325985,309.9013,02/13.0/2026,2000,g 14.0,4.0
# From MPC105542
P/2014 W4 (PANSTARRS),e,15.2825,33.2778,67.8199,6.578277,0.0584165,0.35524066,215.3243,02/13.0/2026,2000,g 11.0,4.0
# From MPC 99270
P/2015 B1 (PANSTARRS),e,18.0970,352.8393,188.6473,9.470666,0.0338169,0.36733709,128.8792,02/13.0/2026,2000,g  8.5,4.0
# From MPC 98561
C/2015 D2 (PANSTARRS),e,31.9225,162.7118,292.3558,12.79784,0.0215278,0.56193219,97.1694,02/13.0/2026,2000,g  8.0,4.0
# From MPEC 2020-L06
C/2015 D3 (PANSTARRS),e,128.5702,156.8920,2.6346,12976,0.0000007,0.99937312,0.0000,04/25.1945/2016,2000,g  5.5,4.0
# From MPC109141
P/2015 D5 (Kowalski),e,20.5464,74.0792,39.6686,8.944132,0.0368465,0.49206955,159.3214,02/13.0/2026,2000,g  9.0,4.0
# From MPEC 2024-R10
P/2015 D6 (Lemmon-PANSTARRS),e,20.3499,45.2446,126.0223,7.116694,0.0519143,0.36316706,201.2376,02/13.0/2026,2000,g 10.5,4.0
# From MPEC 2021-F20
C/2015 ER61 (PANSTARRS),e,6.3083,234.9520,68.7775,470.5309,0.0000966,0.99773994,0.0000,05/05.2919/2017,2000,g 11.0,2.0
# From MPC107684
P/2015 M2 (PANSTARRS),e,3.9677,86.6974,225.5347,7.255751,0.0504290,0.17767197,192.8960,02/13.0/2026,2000,g  8.5,4.0
# From MPEC 2021-P47
C/2015 O1 (PANSTARRS),h,02/18.0745/2018,27.1039,299.7022,89.8544,1.001764,3.747397,2000,6.5,4.0
# From MPEC 2022-K19
P/2015 PD229 (Cameron-ISON),e,2.0193,342.7501,352.6177,7.210325,0.0509063,0.32460237,195.7307,02/13.0/2026,2000,g 11.5,2.0
# From MPC 95734
P/2015 R2 (PANSTARRS),e,15.4825,168.6008,149.8838,4.478882,0.1039800,0.45179779,44.1195,02/13.0/2026,2000,g 14.5,4.0
# From MPC102097
C/2015 T5 (Sheppard-Tholen),e,11.0189,311.2534,62.2215,28.43646,0.0064997,0.66985834,23.8329,02/13.0/2026,2000,g  7.5,4.0
# From MPEC 2026-A90
P/2015 TO19 (Lemmon-PANSTARRS),e,6.5050,321.6033,89.4517,4.548366,0.1016064,0.35997004,8.2301,02/13.0/2026,2000,g 14.0,4.0
# From MPC110080
P/2015 TP200 (LINEAR),e,8.7770,6.8659,82.6684,7.263502,0.0503483,0.53725514,170.5537,02/13.0/2026,2000,g 11.0,4.0
# From MPC115881
C/2015 V1 (PANSTARRS),e,139.1789,197.3200,179.9137,170941,0.0000000,0.99997491,0.0000,12/19.1928/2017,2000,g  6.5,4.0
# From MPC112390
C/2015 V2 (Johnson),h,06/08.9695/2017,49.7923,70.0405,164.7416,1.000784,1.635341,2000,5.0,4.0
# From MPC104791
C/2015 V4 (PANSTARRS),e,60.7723,179.7860,306.7912,18.43408,0.0124529,0.70532527,43.0045,02/13.0/2026,2000,g  8.5,4.0
# From MPEC 2022-OB6
C/2015 XY1 (Lemmon),h,04/27.8083/2018,148.8589,281.5265,196.3331,1.001427,7.952099,2000,5.5,4.0
# From MPEC 2023-J29
P/2015 X3 (PANSTARRS),e,24.4208,77.2508,306.9998,4.995461,0.0882756,0.43962198,337.6877,02/13.0/2026,2000,g 15.0,4.0
# From MPC119995
C/2015 X5 (PANSTARRS),h,12/28.2620/2017,124.3802,122.2006,27.6861,1.000497,6.813545,2000,7.5,4.0
# From MPC115881
P/2015 X6 (PANSTARRS),e,4.5662,106.9296,329.5154,2.751877,0.2159039,0.17402541,60.0740,02/13.0/2026,2000,g 16.0,4.0
# From MPEC 2022-O08
C/2016 A1 (PANSTARRS),e,121.2785,128.0071,10.1852,11578,0.0000008,0.99953950,0.0000,11/20.0650/2017,2000,g  6.0,4.0
# From MPEC 2022-OB6
P/2016 A3 (PANSTARRS),e,8.5257,187.1052,340.8182,7.865394,0.0446810,0.38749703,143.5531,02/13.0/2026,2000,g 10.0,4.0
# From MPC102098
P/2016 A7 (PANSTARRS),e,16.1220,219.8948,353.1653,5.084387,0.0859699,0.56891729,319.7033,02/13.0/2026,2000,g 16.0,4.0
# From MPEC 2020-L06
C/2016 C1 (PANSTARRS),h,02/18.2490/2016,56.2062,181.7196,328.5244,1.001503,8.428969,2000,5.5,4.0
# From MPEC 2020-L06
C/2016 E1 (PANSTARRS),h,05/27.4924/2017,131.8717,233.1401,47.2290,1.001490,8.160909,2000,6.5,4.0
# From MPEC 2021-P47
P/2016 G1 (PANSTARRS),e,10.9704,204.0087,111.0803,2.583299,0.2373789,0.20987479,64.7793,02/13.0/2026,2000,g 14.0,4.0
# From MPEC 2022-ED3
C/2016 M1 (PANSTARRS),e,90.7355,92.2977,209.8385,2188,0.0000096,0.99898934,0.0000,08/07.8498/2018,2000,g  5.0,4.0
# From MPEC 2021-P47
C/2016 N6 (PANSTARRS),e,105.9428,298.7238,162.6686,1001,0.0000311,0.99732919,0.0000,07/16.1104/2018,2000,g  7.0,4.0
# From MPC102099
